ONEWEB-0403             
1 50483U 21132Q   25217.01613466  .00000060  00000+0  11884-3 0  9993
2 50483  87.9127  38.2510 0001742  93.2888 266.8444 13.18686367181202
ONEWEB-0404             
1 50484U 21132R   25217.15768490  .00000601  00000+0  16589-2 0  9994
2 50484  87.8803  84.0627 0001602  92.6926 267.4385 13.11418258175548
ONEWEB-0405             
1 50485U 21132S   25216.80332973 -.00000078  00000+0 -22964-3 0  9994
2 50485  87.9126  38.2799 0002088  92.9714 267.1657 13.18687419180297
ONEWEB-0406             
1 50486U 21132T   25217.02107515 -.00000061  00000+0 -18648-3 0  9998
2 50486  87.9127  38.2590 0001357 102.1166 258.0119 13.18685468181241
ONEWEB-0407             
1 50487U 21132U   25217.01448795  .00000062  00000+0  12424-3 0  9991
2 50487  87.9125  38.2455 0001930  93.6097 266.5256 13.18685569181185
ONEWEB-0409             
1 50488U 21132V   25217.15598871  .00000591  00000+0  16302-2 0  9993
2 50488  87.8792  84.0236 0001452  86.1241 274.0053 13.11418896175449
ONEWEB-0412             
1 50489U 21132W   25216.47179174  .00000032  00000+0  47189-4 0  9998
2 50489  87.9122  38.3668 0002189  91.1200 269.0182 13.18684400179914
ONEWEB-0413             
1 50490U 21132X   25216.93199728  .00000040  00000+0  69316-4 0  9993
2 50490  87.9127  38.2905 0002175  86.3180 273.8201 13.18687761179910
